<?xml version="1.0" encoding="UTF-8"?>
<ndm xmlns:xsi="http://www.w3.org/2001/XMLSchema-instance" xsi:noNamespaceSchemaLocation="https://sanaregistry.org/r/ndmxml_unqualified/ndmxml-2.0.0-master-2.0.xsd">
<omm id="CCSDS_OMM_VERS" version="2.0">
<header><CREATION_DATE/><ORIGINATOR/></header><body><segment><metadata><OBJECT_NAME>ORBCOMM FM115 [+]</OBJECT_NAME><OBJECT_ID>2015-081H</OBJECT_ID><CENTER_NAME>EARTH</CENTER_NAME><REF_FRAME>TEME</REF_FRAME><TIME_SYSTEM>UTC</TIME_SYSTEM><MEAN_ELEMENT_THEORY>SGP4</MEAN_ELEMENT_THEORY></metadata><data><meanElements><EPOCH>2023-12-15T11:27:09.912384</EPOCH><MEAN_MOTION>14.60175297</MEAN_MOTION><ECCENTRICITY>.0000206</ECCENTRICITY><INCLINATION>46.9979</INCLINATION><RA_OF_ASC_NODE>129.0055</RA_OF_ASC_NODE><ARG_OF_PERICENTER>257.6921</ARG_OF_PERICENTER><MEAN_ANOMALY>102.3942</MEAN_ANOMALY></meanElements><tleParameters><EPHEMERIS_TYPE>0</EPHEMERIS_TYPE><CLASSIFICATION_TYPE>U</CLASSIFICATION_TYPE><NORAD_CAT_ID>41186</NORAD_CAT_ID><ELEMENT_SET_NO>999</ELEMENT_SET_NO><REV_AT_EPOCH>42737</REV_AT_EPOCH><BSTAR>.16974E-3</BSTAR><MEAN_MOTION_DOT>.653E-5</MEAN_MOTION_DOT><MEAN_MOTION_DDOT>0</MEAN_MOTION_DDOT></tleParameters></data></segment></body></omm>
<omm id="CCSDS_OMM_VERS" version="2.0">
<header><CREATION_DATE/><ORIGINATOR/></header><body><segment><metadata><OBJECT_NAME>ORBCOMM FM108 [+]</OBJECT_NAME><OBJECT_ID>2015-081J</OBJECT_ID><CENTER_NAME>EARTH</CENTER_NAME><REF_FRAME>TEME</REF_FRAME><TIME_SYSTEM>UTC</TIME_SYSTEM><MEAN_ELEMENT_THEORY>SGP4</MEAN_ELEMENT_THEORY></metadata><data><meanElements><EPOCH>2023-12-15T15:50:40.153344</EPOCH><MEAN_MOTION>14.56124327</MEAN_MOTION><ECCENTRICITY>.0002235</ECCENTRICITY><INCLINATION>47.0019</INCLINATION><RA_OF_ASC_NODE>177.8372</RA_OF_ASC_NODE><ARG_OF_PERICENTER>306.4708</ARG_OF_PERICENTER><MEAN_ANOMALY>53.5970</MEAN_ANOMALY></meanElements><tleParameters><EPHEMERIS_TYPE>0</EPHEMERIS_TYPE><CLASSIFICATION_TYPE>U</CLASSIFICATION_TYPE><NORAD_CAT_ID>41187</NORAD_CAT_ID><ELEMENT_SET_NO>999</ELEMENT_SET_NO><REV_AT_EPOCH>42673</REV_AT_EPOCH><BSTAR>.13489E-3</BSTAR><MEAN_MOTION_DOT>.433E-5</MEAN_MOTION_DOT><MEAN_MOTION_DDOT>0</MEAN_MOTION_DDOT></tleParameters></data></segment></body></omm>
<omm id="CCSDS_OMM_VERS" version="2.0">
<header><CREATION_DATE/><ORIGINATOR/></header><body><segment><metadata><OBJECT_NAME>ORBCOMM FM117 [+]</OBJECT_NAME><OBJECT_ID>2015-081K</OBJECT_ID><CENTER_NAME>EARTH</CENTER_NAME><REF_FRAME>TEME</REF_FRAME><TIME_SYSTEM>UTC</TIME_SYSTEM><MEAN_ELEMENT_THEORY>SGP4</MEAN_ELEMENT_THEORY></metadata><data><meanElements><EPOCH>2023-12-15T15:01:25.123008</EPOCH><MEAN_MOTION>14.56123015</MEAN_MOTION><ECCENTRICITY>.0002914</ECCENTRICITY><INCLINATION>46.9991</INCLINATION><RA_OF_ASC_NODE>176.9410</RA_OF_ASC_NODE><ARG_OF_PERICENTER>313.9339</ARG_OF_PERICENTER><MEAN_ANOMALY>46.1305</MEAN_ANOMALY></meanElements><tleParameters><EPHEMERIS_TYPE>0</EPHEMERIS_TYPE><CLASSIFICATION_TYPE>U</CLASSIFICATION_TYPE><NORAD_CAT_ID>41188</NORAD_CAT_ID><ELEMENT_SET_NO>999</ELEMENT_SET_NO><REV_AT_EPOCH>42674</REV_AT_EPOCH><BSTAR>.12542E-3</BSTAR><MEAN_MOTION_DOT>.391E-5</MEAN_MOTION_DOT><MEAN_MOTION_DDOT>0</MEAN_MOTION_DDOT></tleParameters></data></segment></body></omm>
<omm id="CCSDS_OMM_VERS" version="2.0">
<header><CREATION_DATE/><ORIGINATOR/></header><body><segment><metadata><OBJECT_NAME>ORBCOMM FM116 [+]</OBJECT_NAME><OBJECT_ID>2015-081L</OBJECT_ID><CENTER_NAME>EARTH</CENTER_NAME><REF_FRAME>TEME</REF_FRAME><TIME_SYSTEM>UTC</TIME_SYSTEM><MEAN_ELEMENT_THEORY>SGP4</MEAN_ELEMENT_THEORY></metadata><data><meanElements><EPOCH>2023-12-14T22:18:01.683360</EPOCH><MEAN_MOTION>14.56143555</MEAN_MOTION><ECCENTRICITY>.0002057</ECCENTRICITY><INCLINATION>47.0025</INCLINATION><RA_OF_ASC_NODE>270.0303</RA_OF_ASC_NODE><ARG_OF_PERICENTER>33.8506</ARG_OF_PERICENTER><MEAN_ANOMALY>326.2509</MEAN_ANOMALY></meanElements><tleParameters><EPHEMERIS_TYPE>0</EPHEMERIS_TYPE><CLASSIFICATION_TYPE>U</CLASSIFICATION_TYPE><NORAD_CAT_ID>41189</NORAD_CAT_ID><ELEMENT_SET_NO>999</ELEMENT_SET_NO><REV_AT_EPOCH>42540</REV_AT_EPOCH><BSTAR>.21474E-3</BSTAR><MEAN_MOTION_DOT>.789E-5</MEAN_MOTION_DOT><MEAN_MOTION_DDOT>0</MEAN_MOTION_DDOT></tleParameters></data></segment></body></omm>
</ndm>
