ORBCOMM FM115 [+]       
1 41186U 15081H   23349.47719806  .00000653  00000+0  16974-3 0  9991
2 41186  46.9979 129.0055 0000206 257.6921 102.3942 14.60175297427374
ORBCOMM FM108 [+]       
1 41187U 15081J   23349.66018696  .00000433  00000+0  13489-3 0  9996
2 41187  47.0019 177.8372 0002235 306.4708  53.5970 14.56124327426656
ORBCOMM FM117 [+]       
1 41188U 15081K   23349.62598522  .00000391  00000+0  12542-3 0  9996
2 41188  46.9991 176.9410 0002914 313.9339  46.1305 14.56123015426691
ORBCOMM FM116 [+]       
1 41189U 15081L   23348.92918615  .00000789  00000+0  21474-3 0  9993
2 41189  47.0025 270.0303 0002057  33.8506 326.2509 14.56143555425408
